[{"OBJECT_NAME":"GRUS-1B","OBJECT_ID":"2021-022C","EPOCH":"2026-03-09T23:21:03.699936","MEAN_MOTION":14.98735678,"ECCENTRICITY":0.00144346,"INCLINATION":97.554,"RA_OF_ASC_NODE":315.3658,"ARG_OF_PERICENTER":300.5216,"MEAN_ANOMALY":59.4582,"EPHEMERIS_TYPE":0,"CLASSIFICATION_TYPE":"U","NORAD_CAT_ID":47934,"ELEMENT_SET_NO":999,"REV_AT_EPOCH":27103,"BSTAR":0.00025294791,"MEAN_MOTION_DOT":2.992e-5,"MEAN_MOTION_DDOT":0},{"OBJECT_NAME":"STARLINK-5888","OBJECT_ID":"2023-058AH","EPOCH":"2026-03-09T23:21:54.122976","MEAN_MOTION":15.01259411,"ECCENTRICITY":0.00021802,"INCLINATION":97.6029,"RA_OF_ASC_NODE":70.4861,"ARG_OF_PERICENTER":164.2929,"MEAN_ANOMALY":195.8363,"EPHEMERIS_TYPE":0,"CLASSIFICATION_TYPE":"U","NORAD_CAT_ID":56348,"ELEMENT_SET_NO":999,"REV_AT_EPOCH":15817,"BSTAR":-4.5188127e-5,"MEAN_MOTION_DOT":-6.39e-6,"MEAN_MOTION_DDOT":0}]
